CCSDS_OMM_VERS = 2.0
CREATION_DATE  = 
ORIGINATOR     = 

OBJECT_NAME    = YOTSUBA-KULOVER
OBJECT_ID      = 1998-067XN
CENTER_NAME    = EARTH
REF_FRAME      = TEME
TIME_SYSTEM    = UTC
MEAN_ELEMENT_THEORY = SGP/SGP4

EPOCH          = 2026-02-17T13:10:00.038784
MEAN_MOTION    = 15.73359880
ECCENTRICITY   = .00049344
INCLINATION    = 51.6250
RA_OF_ASC_NODE = 161.1458
ARG_OF_PERICENTER = 320.8194
MEAN_ANOMALY   = 39.2447

EPHEMERIS_TYPE = 0
CLASSIFICATION_TYPE = U
NORAD_CAT_ID   = 65941
ELEMENT_SET_NO = 999
REV_AT_EPOCH   = 2032
BSTAR          = .88498132E-3
MEAN_MOTION_DOT = .126617E-2
MEAN_MOTION_DDOT = 0

CCSDS_OMM_VERS = 2.0
CREATION_DATE  = 
ORIGINATOR     = 

OBJECT_NAME    = BOTAN
OBJECT_ID      = 1998-067XP
CENTER_NAME    = EARTH
REF_FRAME      = TEME
TIME_SYSTEM    = UTC
MEAN_ELEMENT_THEORY = SGP/SGP4

EPOCH          = 2026-02-17T12:35:20.125536
MEAN_MOTION    = 15.91838464
ECCENTRICITY   = .0009065
INCLINATION    = 51.6160
RA_OF_ASC_NODE = 156.4110
ARG_OF_PERICENTER = 340.4312
MEAN_ANOMALY   = 19.6345

EPHEMERIS_TYPE = 0
CLASSIFICATION_TYPE = U
NORAD_CAT_ID   = 65942
ELEMENT_SET_NO = 999
REV_AT_EPOCH   = 2038
BSTAR          = .13673841E-2
MEAN_MOTION_DOT = .459962E-2
MEAN_MOTION_DDOT = .92604119E-4

CCSDS_OMM_VERS = 2.0
CREATION_DATE  = 
ORIGINATOR     = 

OBJECT_NAME    = E-KAGAKU-1
OBJECT_ID      = 1998-067XQ
CENTER_NAME    = EARTH
REF_FRAME      = TEME
TIME_SYSTEM    = UTC
MEAN_ELEMENT_THEORY = SGP/SGP4

EPOCH          = 2026-02-17T13:12:10.236672
MEAN_MOTION    = 15.73209211
ECCENTRICITY   = .00049355
INCLINATION    = 51.6276
RA_OF_ASC_NODE = 161.1693
ARG_OF_PERICENTER = 333.6914
MEAN_ANOMALY   = 26.3833

EPHEMERIS_TYPE = 0
CLASSIFICATION_TYPE = U
NORAD_CAT_ID   = 65943
ELEMENT_SET_NO = 999
REV_AT_EPOCH   = 2032
BSTAR          = .87977982E-3
MEAN_MOTION_DOT = .125033E-2
MEAN_MOTION_DDOT = 0

CCSDS_OMM_VERS = 2.0
CREATION_DATE  = 
ORIGINATOR     = 

OBJECT_NAME    = HRC MONOBLOCK CAMERA
OBJECT_ID      = 1998-067XR
CENTER_NAME    = EARTH
REF_FRAME      = TEME
TIME_SYSTEM    = UTC
MEAN_ELEMENT_THEORY = SGP/SGP4

EPOCH          = 2026-02-17T12:50:37.447296
MEAN_MOTION    = 15.60063955
ECCENTRICITY   = .00022098
INCLINATION    = 51.6290
RA_OF_ASC_NODE = 167.0775
ARG_OF_PERICENTER = 16.8491
MEAN_ANOMALY   = 343.2575

EPHEMERIS_TYPE = 0
CLASSIFICATION_TYPE = U
NORAD_CAT_ID   = 66052
ELEMENT_SET_NO = 999
REV_AT_EPOCH   = 1924
BSTAR          = .52117454E-3
MEAN_MOTION_DOT = .42779E-3
MEAN_MOTION_DDOT = 0

CCSDS_OMM_VERS = 2.0
CREATION_DATE  = 
ORIGINATOR     = 

OBJECT_NAME    = HTV-X1
OBJECT_ID      = 2025-241A
CENTER_NAME    = EARTH
REF_FRAME      = TEME
TIME_SYSTEM    = UTC
MEAN_ELEMENT_THEORY = SGP/SGP4

EPOCH          = 2026-02-17T13:40:51.309120
MEAN_MOTION    = 15.48664181
ECCENTRICITY   = .0011023
INCLINATION    = 51.6323
RA_OF_ASC_NODE = 171.8070
ARG_OF_PERICENTER = 108.2943
MEAN_ANOMALY   = 251.9246

EPHEMERIS_TYPE = 0
CLASSIFICATION_TYPE = U
NORAD_CAT_ID   = 66174
ELEMENT_SET_NO = 999
REV_AT_EPOCH   = 51
BSTAR          = .15503814E-3
MEAN_MOTION_DOT = .8013E-4
MEAN_MOTION_DDOT = 0

CCSDS_OMM_VERS = 2.0
CREATION_DATE  = 
ORIGINATOR     = 

OBJECT_NAME    = SZ-21 MODULE
OBJECT_ID      = 2025-246C
CENTER_NAME    = EARTH
REF_FRAME      = TEME
TIME_SYSTEM    = UTC
MEAN_ELEMENT_THEORY = SGP/SGP4

EPOCH          = 2026-02-17T04:17:16.923840
MEAN_MOTION    = 15.66957917
ECCENTRICITY   = .00019678
INCLINATION    = 41.4766
RA_OF_ASC_NODE = 329.4655
ARG_OF_PERICENTER = 297.4736
MEAN_ANOMALY   = 62.5905

EPHEMERIS_TYPE = 0
CLASSIFICATION_TYPE = U
NORAD_CAT_ID   = 66515
ELEMENT_SET_NO = 999
REV_AT_EPOCH   = 1485
BSTAR          = .34761218E-3
MEAN_MOTION_DOT = .37852E-3
MEAN_MOTION_DDOT = 0

CCSDS_OMM_VERS = 2.0
CREATION_DATE  = 
ORIGINATOR     = 

OBJECT_NAME    = SHENZHOU-22
OBJECT_ID      = 2025-272A
CENTER_NAME    = EARTH
REF_FRAME      = TEME
TIME_SYSTEM    = UTC
MEAN_ELEMENT_THEORY = SGP/SGP4

EPOCH          = 2026-02-17T05:34:10.349472
MEAN_MOTION    = 15.59770251
ECCENTRICITY   = .00041623
INCLINATION    = 41.4683
RA_OF_ASC_NODE = 332.5551
ARG_OF_PERICENTER = 122.3722
MEAN_ANOMALY   = 237.7519

EPHEMERIS_TYPE = 0
CLASSIFICATION_TYPE = U
NORAD_CAT_ID   = 66645
ELEMENT_SET_NO = 999
REV_AT_EPOCH   = 26764
BSTAR          = .35627248E-3
MEAN_MOTION_DOT = .29154E-3
MEAN_MOTION_DDOT = 0

CCSDS_OMM_VERS = 2.0
CREATION_DATE  = 
ORIGINATOR     = 

OBJECT_NAME    = SOYUZ-MS 28
OBJECT_ID      = 2025-275A
CENTER_NAME    = EARTH
REF_FRAME      = TEME
TIME_SYSTEM    = UTC
MEAN_ELEMENT_THEORY = SGP/SGP4

EPOCH          = 2026-02-17T13:40:51.309120
MEAN_MOTION    = 15.48664181
ECCENTRICITY   = .0011023
INCLINATION    = 51.6323
RA_OF_ASC_NODE = 171.8070
ARG_OF_PERICENTER = 108.2943
MEAN_ANOMALY   = 251.9246

EPHEMERIS_TYPE = 0
CLASSIFICATION_TYPE = U
NORAD_CAT_ID   = 66664
ELEMENT_SET_NO = 999
REV_AT_EPOCH   = 128
BSTAR          = .15503814E-3
MEAN_MOTION_DOT = .8013E-4
MEAN_MOTION_DDOT = 0

CCSDS_OMM_VERS = 2.0
CREATION_DATE  = 
ORIGINATOR     = 

OBJECT_NAME    = DUPLEX
OBJECT_ID      = 1998-067XS
CENTER_NAME    = EARTH
REF_FRAME      = TEME
TIME_SYSTEM    = UTC
MEAN_ELEMENT_THEORY = SGP/SGP4

EPOCH          = 2026-02-17T12:59:45.468672
MEAN_MOTION    = 15.54812852
ECCENTRICITY   = .00014327
INCLINATION    = 51.6299
RA_OF_ASC_NODE = 170.1197
ARG_OF_PERICENTER = 66.3998
MEAN_ANOMALY   = 293.7143

EPHEMERIS_TYPE = 0
CLASSIFICATION_TYPE = U
NORAD_CAT_ID   = 66906
ELEMENT_SET_NO = 999
REV_AT_EPOCH   = 1199
BSTAR          = .49956366E-3
MEAN_MOTION_DOT = .33568E-3
MEAN_MOTION_DDOT = 0

CCSDS_OMM_VERS = 2.0
CREATION_DATE  = 
ORIGINATOR     = 

OBJECT_NAME    = ISS OBJECT XT
OBJECT_ID      = 1998-067XT
CENTER_NAME    = EARTH
REF_FRAME      = TEME
TIME_SYSTEM    = UTC
MEAN_ELEMENT_THEORY = SGP/SGP4

EPOCH          = 2026-02-17T13:08:15.694368
MEAN_MOTION    = 15.63657605
ECCENTRICITY   = .000259
INCLINATION    = 51.6272
RA_OF_ASC_NODE = 167.9043
ARG_OF_PERICENTER = 325.1808
MEAN_ANOMALY   = 34.9017

EPHEMERIS_TYPE = 0
CLASSIFICATION_TYPE = U
NORAD_CAT_ID   = 66907
ELEMENT_SET_NO = 999
REV_AT_EPOCH   = 1202
BSTAR          = .10640819E-2
MEAN_MOTION_DOT = .101826E-2
MEAN_MOTION_DDOT = 0

CCSDS_OMM_VERS = 2.0
CREATION_DATE  = 
ORIGINATOR     = 

OBJECT_NAME    = ISS OBJECT XU
OBJECT_ID      = 1998-067XU
CENTER_NAME    = EARTH
REF_FRAME      = TEME
TIME_SYSTEM    = UTC
MEAN_ELEMENT_THEORY = SGP/SGP4

EPOCH          = 2026-02-17T08:31:02.940960
MEAN_MOTION    = 15.63675292
ECCENTRICITY   = .00026039
INCLINATION    = 51.6262
RA_OF_ASC_NODE = 168.8668
ARG_OF_PERICENTER = 330.7094
MEAN_ANOMALY   = 29.3754

EPHEMERIS_TYPE = 0
CLASSIFICATION_TYPE = U
NORAD_CAT_ID   = 66908
ELEMENT_SET_NO = 999
REV_AT_EPOCH   = 1199
BSTAR          = .13425231E-2
MEAN_MOTION_DOT = .129139E-2
MEAN_MOTION_DDOT = 0

CCSDS_OMM_VERS = 2.0
CREATION_DATE  = 
ORIGINATOR     = 

OBJECT_NAME    = SILVERSAT
OBJECT_ID      = 1998-067XV
CENTER_NAME    = EARTH
REF_FRAME      = TEME
TIME_SYSTEM    = UTC
MEAN_ELEMENT_THEORY = SGP/SGP4

EPOCH          = 2026-02-17T13:50:00.723264
MEAN_MOTION    = 15.65453016
ECCENTRICITY   = .00033303
INCLINATION    = 51.6276
RA_OF_ASC_NODE = 167.3464
ARG_OF_PERICENTER = 324.3396
MEAN_ANOMALY   = 35.7377

EPHEMERIS_TYPE = 0
CLASSIFICATION_TYPE = U
NORAD_CAT_ID   = 66909
ELEMENT_SET_NO = 999
REV_AT_EPOCH   = 1203
BSTAR          = .11824003E-2
MEAN_MOTION_DOT = .121901E-2
MEAN_MOTION_DDOT = 0

